{
  "type": "FeatureCollection",
  "features": [
    {
      "type": "Feature",
      "properties": {
        "norad_id": 40362,
        "name": "YAOGAN-26",
        "group": "resource",
        "lat": -54.77410548457043,
        "lon": 156.8956292946227,
        "alt_km": 459.225804570061,
        "timestamp": "2025-12-12T07:43:20.160775+00:00",
        "meta_object_name": "YAOGAN-26",
        "meta_object_id": "2014-088A",
        "meta_epoch": "2025-12-12T00:27:44.009568",
        "meta_mean_motion": 15.3927095,
        "meta_eccentricity": 0.00063215,
        "meta_inclination": 97.0644,
        "meta_ra_of_asc_node": 346.7193,
        "meta_arg_of_pericenter": 32.283,
        "meta_mean_anomaly": 327.8802,
        "meta_ephemeris_type": 0,
        "meta_classification_type": "U",
        "meta_norad_cat_id": 40362,
        "meta_element_set_no": 999,
        "meta_rev_at_epoch": 60883,
        "meta_bstar": 0.00095320366,
        "meta_mean_motion_dot": 0.0003721,
        "meta_mean_motion_ddot": 0,
        "tle_line1": "1 40362U 14088A   25346.01925937  .00037210  00000+0  95320-3 0  9996",
        "tle_line2": "2 40362  97.0644 346.7193 0006321  32.2830 327.8802 15.39270950608836"
      },
      "geometry": {
        "type": "Point",
        "coordinates": [
          156.8956292946227,
          -54.77410548457043
        ]
      }
    },
    {
      "type": "Feature",
      "properties": {
        "norad_id": 40376,
        "name": "SMAP",
        "group": "resource",
        "lat": -57.36581581237753,
        "lon": 158.15406305517354,
        "alt_km": 690.2110900555435,
        "timestamp": "2025-12-12T07:43:20.160786+00:00",
        "meta_object_name": "SMAP",
        "meta_object_id": "2015-003A",
        "meta_epoch": "2025-12-12T00:04:21.949248",
        "meta_mean_motion": 14.63343691,
        "meta_eccentricity": 0.00011987,
        "meta_inclination": 98.1292,
        "meta_ra_of_asc_node": 350.7375,
        "meta_arg_of_pericenter": 89.776,
        "meta_mean_anomaly": 270.3579,
        "meta_ephemeris_type": 0,
        "meta_classification_type": "U",
        "meta_norad_cat_id": 40376,
        "meta_element_set_no": 999,
        "meta_rev_at_epoch": 58024,
        "meta_bstar": 0.00018657618,
        "meta_mean_motion_dot": 9.17e-06,
        "meta_mean_motion_ddot": 0,
        "tle_line1": "1 40376U 15003A   25346.00303182  .00000917  00000+0  18658-3 0  9993",
        "tle_line2": "2 40376  98.1292 350.7375 0001198  89.7760 270.3579 14.63343691580241"
      },
      "geometry": {
        "type": "Point",
        "coordinates": [
          158.15406305517354,
          -57.36581581237753
        ]
      }
    },
    {
      "type": "Feature",
      "properties": {
        "norad_id": 40536,
        "name": "KOMPSAT-3A",
        "group": "resource",
        "lat": 10.914182639806537,
        "lon": 142.13617290756693,
        "alt_km": 433.66955302739734,
        "timestamp": "2025-12-12T07:43:20.160796+00:00",
        "meta_object_name": "KOMPSAT-3A",
        "meta_object_id": "2015-014A",
        "meta_epoch": "2025-12-11T23:12:57.555648",
        "meta_mean_motion": 15.43899253,
        "meta_eccentricity": 0.00048336,
        "meta_inclination": 97.6789,
        "meta_ra_of_asc_node": 320.2713,
        "meta_arg_of_pericenter": 128.7303,
        "meta_mean_anomaly": 231.4377,
        "meta_ephemeris_type": 0,
        "meta_classification_type": "U",
        "meta_norad_cat_id": 40536,
        "meta_element_set_no": 999,
        "meta_rev_at_epoch": 59283,
        "meta_bstar": 0.00057798503,
        "meta_mean_motion_dot": 0.00026225,
        "meta_mean_motion_ddot": 0,
        "tle_line1": "1 40536U 15014A   25345.96733282  .00026225  00000+0  57799-3 0  9994",
        "tle_line2": "2 40536  97.6789 320.2713 0004833 128.7303 231.4377 15.43899253592839"
      },
      "geometry": {
        "type": "Point",
        "coordinates": [
          142.13617290756693,
          10.914182639806537
        ]
      }
    },
    {
      "type": "Feature",
      "properties": {
        "norad_id": 40697,
        "name": "SENTINEL-2A",
        "group": "resource",
        "lat": 24.169537218176245,
        "lon": -117.2605715192796,
        "alt_km": 788.0865457504315,
        "timestamp": "2025-12-12T07:43:20.160806+00:00",
        "meta_object_name": "SENTINEL-2A",
        "meta_object_id": "2015-028A",
        "meta_epoch": "2025-12-12T00:17:05.900640",
        "meta_mean_motion": 14.30812425,
        "meta_eccentricity": 0.00010942,
        "meta_inclination": 98.5687,
        "meta_ra_of_asc_node": 58.5542,
        "meta_arg_of_pericenter": 87.7216,
        "meta_mean_anomaly": 272.4093,
        "meta_ephemeris_type": 0,
        "meta_classification_type": "U",
        "meta_norad_cat_id": 40697,
        "meta_element_set_no": 999,
        "meta_rev_at_epoch": 54696,
        "meta_bstar": 0.00011987368,
        "meta_mean_motion_dot": 2.71e-06,
        "meta_mean_motion_ddot": 0,
        "tle_line1": "1 40697U 15028A   25346.01187385  .00000271  00000+0  11987-3 0  9993",
        "tle_line2": "2 40697  98.5687  58.5542 0001094  87.7216 272.4093 14.30812425546962"
      },
      "geometry": {
        "type": "Point",
        "coordinates": [
          -117.2605715192796,
          24.169537218176245
        ]
      }
    },
    {
      "type": "Feature",
      "properties": {
        "norad_id": 40701,
        "name": "GAOFEN-8",
        "group": "resource",
        "lat": 39.68296076241768,
        "lon": 158.00353439026077,
        "alt_km": 448.7620454477228,
        "timestamp": "2025-12-12T07:43:20.160817+00:00",
        "meta_object_name": "GAOFEN-8",
        "meta_object_id": "2015-030A",
        "meta_epoch": "2025-12-11T23:44:36.597408",
        "meta_mean_motion": 15.38505604,
        "meta_eccentricity": 0.00115685,
        "meta_inclination": 97.6912,
        "meta_ra_of_asc_node": 164.0932,
        "meta_arg_of_pericenter": 140.5706,
        "meta_mean_anomaly": 219.6383,
        "meta_ephemeris_type": 0,
        "meta_classification_type": "U",
        "meta_norad_cat_id": 40701,
        "meta_element_set_no": 999,
        "meta_rev_at_epoch": 58259,
        "meta_bstar": 0.000485411,
        "meta_mean_motion_dot": 0.0001842,
        "meta_mean_motion_ddot": 0,
        "tle_line1": "1 40701U 15030A   25345.98931247  .00018420  00000+0  48541-3 0  9992",
        "tle_line2": "2 40701  97.6912 164.0932 0011568 140.5706 219.6383 15.38505604582595"
      },
      "geometry": {
        "type": "Point",
        "coordinates": [
          158.00353439026077,
          39.68296076241768
        ]
      }
    },
    {
      "type": "Feature",
      "properties": {
        "norad_id": 40718,
        "name": "CARBONITE 1 (CBNT-1)",
        "group": "resource",
        "lat": 54.6547357728486,
        "lon": 156.4737759460604,
        "alt_km": 621.6469723448263,
        "timestamp": "2025-12-12T07:43:20.160827+00:00",
        "meta_object_name": "CARBONITE 1 (CBNT-1)",
        "meta_object_id": "2015-032D",
        "meta_epoch": "2025-12-12T00:59:39.241824",
        "meta_mean_motion": 14.82738978,
        "meta_eccentricity": 0.00143364,
        "meta_inclination": 97.6404,
        "meta_ra_of_asc_node": 167.1162,
        "meta_arg_of_pericenter": 184.0162,
        "meta_mean_anomaly": 176.0939,
        "meta_ephemeris_type": 0,
        "meta_classification_type": "U",
        "meta_norad_cat_id": 40718,
        "meta_element_set_no": 999,
        "meta_rev_at_epoch": 56160,
        "meta_bstar": 0.00045951034,
        "meta_mean_motion_dot": 3.667e-05,
        "meta_mean_motion_ddot": 0,
        "tle_line1": "1 40718U 15032D   25346.04142641  .00003667  00000+0  45951-3 0  9991",
        "tle_line2": "2 40718  97.6404 167.1162 0014336 184.0162 176.0939 14.82738978561605"
      },
      "geometry": {
        "type": "Point",
        "coordinates": [
          156.4737759460604,
          54.6547357728486
        ]
      }
    },
    {
      "type": "Feature",
      "properties": {
        "norad_id": 40878,
        "name": "YAOGAN-27",
        "group": "resource",
        "lat": 4.17299574404271,
        "lon": -24.785040873249272,
        "alt_km": 1200.6157988790355,
        "timestamp": "2025-12-12T07:43:20.160837+00:00",
        "meta_object_name": "YAOGAN-27",
        "meta_object_id": "2015-040A",
        "meta_epoch": "2025-12-12T00:24:09.929376",
        "meta_mean_motion": 13.16061828,
        "meta_eccentricity": 0.00076212,
        "meta_inclination": 100.1015,
        "meta_ra_of_asc_node": 335.669,
        "meta_arg_of_pericenter": 288.5074,
        "meta_mean_anomaly": 71.5211,
        "meta_ephemeris_type": 0,
        "meta_classification_type": "U",
        "meta_norad_cat_id": 40878,
        "meta_element_set_no": 999,
        "meta_rev_at_epoch": 49304,
        "meta_bstar": 0.00095979077,
        "meta_mean_motion_dot": 3.22e-06,
        "meta_mean_motion_ddot": 0,
        "tle_line1": "1 40878U 15040A   25346.01678159  .00000322  00000+0  95979-3 0  9992",
        "tle_line2": "2 40878 100.1015 335.6690 0007621 288.5074  71.5211 13.16061828493042"
      },
      "geometry": {
        "type": "Point",
        "coordinates": [
          -24.785040873249272,
          4.17299574404271
        ]
      }
    }
  ]
}